{"type": "FeatureCollection", "features": [ {"type": "Feature", "properties": {"norad_id": 17070, "name": "POLAR BEAR", "group": "nnss", "lat": 43.73105279779961, "lon": 2.8083987949410125, "alt_km": 961.8569216172345, "timestamp": "2025-12-27T16:33:30.491076+00:00", "meta": {"OBJECT_NAME": "POLAR BEAR", "OBJECT_ID": "1986-088A", "EPOCH": "2025-12-27T12:28:06.882240", "MEAN_MOTION": 13.75253896, "ECCENTRICITY": 0.0041244, "INCLINATION": 89.617, "RA_OF_ASC_NODE": 183.1819, "ARG_OF_PERICENTER": 76.7705, "MEAN_ANOMALY": 295.8288, "EPHEMERIS_TYPE": 0, "CLASSIFICATION_TYPE": "U", "NORAD_CAT_ID": 17070, "ELEMENT_SET_NO": 999, "REV_AT_EPOCH": 96182, "BSTAR": 0.00011804, "MEAN_MOTION_DOT": 1.25e-06, "MEAN_MOTION_DDOT": 0}, "tle": {"line1": "1 17070U 86088A   25361.51952410  .00000125  00000+0  11804-3 0  9993", "line2": "2 17070  89.6170 183.1819 0041244  76.7705 295.8288 13.75253896961823"}}, "geometry": {"type": "Point", "coordinates": [2.8083987949410125, 43.73105279779961]}}, {"type": "Feature", "properties": {"norad_id": 18361, "name": "OSCAR 27", "group": "nnss", "lat": -22.917587990674768, "lon": -100.32685841733105, "alt_km": 1024.1949638115557, "timestamp": "2025-12-27T16:33:30.491087+00:00", "meta": {"OBJECT_NAME": "OSCAR 27", "OBJECT_ID": "1987-080A", "EPOCH": "2025-12-27T06:37:38.342208", "MEAN_MOTION": 13.44909782, "ECCENTRICITY": 0.0104147, "INCLINATION": 90.3735, "RA_OF_ASC_NODE": 79.8157, "ARG_OF_PERICENTER": 182.017, "MEAN_ANOMALY": 178.0573, "EPHEMERIS_TYPE": 0, "CLASSIFICATION_TYPE": "U", "NORAD_CAT_ID": 18361, "ELEMENT_SET_NO": 999, "REV_AT_EPOCH": 87752, "BSTAR": 0.0001737, "MEAN_MOTION_DOT": 1.14e-06, "MEAN_MOTION_DDOT": 0}, "tle": {"line1": "1 18361U 87080A   25361.27613822  .00000114  00000+0  17370-3 0  9996", "line2": "2 18361  90.3735  79.8157 0104147 182.0170 178.0573 13.44909782877528"}}, "geometry": {"type": "Point", "coordinates": [-100.32685841733105, -22.917587990674768]}}, {"type": "Feature", "properties": {"norad_id": 18362, "name": "OSCAR 29", "group": "nnss", "lat": -9.739132081435258, "lon": -99.77310146296892, "alt_km": 1020.8258148680225, "timestamp": "2025-12-27T16:33:30.491098+00:00", "meta": {"OBJECT_NAME": "OSCAR 29", "OBJECT_ID": "1987-080B", "EPOCH": "2025-12-27T12:06:02.600928", "MEAN_MOTION": 13.44451208, "ECCENTRICITY": 0.0104968, "INCLINATION": 90.3747, "RA_OF_ASC_NODE": 80.2843, "ARG_OF_PERICENTER": 204.4856, "MEAN_ANOMALY": 166.9818, "EPHEMERIS_TYPE": 0, "CLASSIFICATION_TYPE": "U", "NORAD_CAT_ID": 18362, "ELEMENT_SET_NO": 999, "REV_AT_EPOCH": 87708, "BSTAR": 0.0001447, "MEAN_MOTION_DOT": 9.5e-07, "MEAN_MOTION_DDOT": 0}, "tle": {"line1": "1 18362U 87080B   25361.50419677  .00000095  00000+0  14470-3 0  9991", "line2": "2 18362  90.3747  80.2843 0104968 204.4856 166.9818 13.44451208877085"}}, "geometry": {"type": "Point", "coordinates": [-99.77310146296892, -9.739132081435258]}}, {"type": "Feature", "properties": {"norad_id": 19070, "name": "OSCAR 23", "group": "nnss", "lat": 29.711880230867585, "lon": -162.96187690620445, "alt_km": 1012.8520112651213, "timestamp": "2025-12-27T16:33:30.491108+00:00", "meta": {"OBJECT_NAME": "OSCAR 23", "OBJECT_ID": "1988-033A", "EPOCH": "2025-12-27T12:45:05.647104", "MEAN_MOTION": 13.27789517, "ECCENTRICITY": 0.0190638, "INCLINATION": 90.3203, "RA_OF_ASC_NODE": 16.8503, "ARG_OF_PERICENTER": 138.9126, "MEAN_ANOMALY": 333.0692, "EPHEMERIS_TYPE": 0, "CLASSIFICATION_TYPE": "U", "NORAD_CAT_ID": 19070, "ELEMENT_SET_NO": 999, "REV_AT_EPOCH": 82449, "BSTAR": 0.00018361, "MEAN_MOTION_DOT": 1.01e-06, "MEAN_MOTION_DDOT": 0}, "tle": {"line1": "1 19070U 88033A   25361.53131536  .00000101  00000+0  18361-3 0  9996", "line2": "2 19070  90.3203  16.8503 0190638 138.9126 333.0692 13.27789517824499"}}, "geometry": {"type": "Point", "coordinates": [-162.96187690620445, 29.711880230867585]}}, {"type": "Feature", "properties": {"norad_id": 19071, "name": "OSCAR 32", "group": "nnss", "lat": -89.56387549724364, "lon": 64.39853164944711, "alt_km": 1277.7677483573016, "timestamp": "2025-12-27T16:33:30.491118+00:00", "meta": {"OBJECT_NAME": "OSCAR 32", "OBJECT_ID": "1988-033B", "EPOCH": "2025-12-27T12:10:14.069856", "MEAN_MOTION": 13.27956153, "ECCENTRICITY": 0.0189365, "INCLINATION": 90.3209, "RA_OF_ASC_NODE": 16.9823, "ARG_OF_PERICENTER": 125.9186, "MEAN_ANOMALY": 349.5834, "EPHEMERIS_TYPE": 0, "CLASSIFICATION_TYPE": "U", "NORAD_CAT_ID": 19071, "ELEMENT_SET_NO": 999, "REV_AT_EPOCH": 82461, "BSTAR": 0.00013953, "MEAN_MOTION_DOT": 7.9e-07, "MEAN_MOTION_DDOT": 0}, "tle": {"line1": "1 19071U 88033B   25361.50710729  .00000079  00000+0  13953-3 0  9997", "line2": "2 19071  90.3209  16.9823 0189365 125.9186 349.5834 13.27956153824615"}}, "geometry": {"type": "Point", "coordinates": [64.39853164944711, -89.56387549724364]}}, {"type": "Feature", "properties": {"norad_id": 19223, "name": "NOVA 2", "group": "nnss", "lat": -16.446899501678768, "lon": -101.74246611618082, "alt_km": 1195.028989973568, "timestamp": "2025-12-27T16:33:30.491139+00:00", "meta": {"OBJECT_NAME": "NOVA 2", "OBJECT_ID": "1988-052A", "EPOCH": "2025-12-27T04:56:26.312640", "MEAN_MOTION": 13.22937732, "ECCENTRICITY": 0.00293738, "INCLINATION": 89.9862, "RA_OF_ASC_NODE": 78.2541, "ARG_OF_PERICENTER": 336.6486, "MEAN_ANOMALY": 75.7931, "EPHEMERIS_TYPE": 0, "CLASSIFICATION_TYPE": "U", "NORAD_CAT_ID": 19223, "ELEMENT_SET_NO": 999, "REV_AT_EPOCH": 81139, "BSTAR": 0.00015382382, "MEAN_MOTION_DOT": 7.3e-07, "MEAN_MOTION_DDOT": 0}, "tle": {"line1": "1 19223U 88052A   25361.20586010  .00000073  00000+0  15382-3 0  9990", "line2": "2 19223  89.9862  78.2541 0029373 336.6486  75.7931 13.22937732811391"}}, "geometry": {"type": "Point", "coordinates": [-101.74246611618082, -16.446899501678768]}}, {"type": "Feature", "properties": {"norad_id": 19419, "name": "OSCAR 25", "group": "nnss", "lat": -71.78054427004456, "lon": -159.80994548221304, "alt_km": 1059.7859087559718, "timestamp": "2025-12-27T16:33:30.491159+00:00", "meta": {"OBJECT_NAME": "OSCAR 25", "OBJECT_ID": "1988-074A", "EPOCH": "2025-12-27T12:18:08.767008", "MEAN_MOTION": 13.42626005, "ECCENTRICITY": 0.0095399, "INCLINATION": 90.0336, "RA_OF_ASC_NODE": 20.2916, "ARG_OF_PERICENTER": 203.1733, "MEAN_ANOMALY": 271.1126, "EPHEMERIS_TYPE": 0, "CLASSIFICATION_TYPE": "U", "NORAD_CAT_ID": 19419, "ELEMENT_SET_NO": 999, "REV_AT_EPOCH": 82838, "BSTAR": 0.00014961, "MEAN_MOTION_DOT": 9.6e-07, "MEAN_MOTION_DDOT": 0}, "tle": {"line1": "1 19419U 88074A   25361.51260147  .00000096  00000+0  14961-3 0  9992", "line2": "2 19419  90.0336  20.2916 0095399 203.1733 271.1126 13.42626005828389"}}, "geometry": {"type": "Point", "coordinates": [-159.80994548221304, -71.78054427004456]}}, {"type": "Feature", "properties": {"norad_id": 19420, "name": "OSCAR 31", "group": "nnss", "lat": 48.300363225341904, "lon": -159.3156666929271, "alt_km": 1065.4110420897068, "timestamp": "2025-12-27T16:33:30.491171+00:00", "meta": {"OBJECT_NAME": "OSCAR 31", "OBJECT_ID": "1988-074B", "EPOCH": "2025-12-27T11:09:54.931104", "MEAN_MOTION": 13.42586975, "ECCENTRICITY": 0.0093791, "INCLINATION": 90.0353, "RA_OF_ASC_NODE": 20.6439, "ARG_OF_PERICENTER": 197.4688, "MEAN_ANOMALY": 289.6459, "EPHEMERIS_TYPE": 0, "CLASSIFICATION_TYPE": "U", "NORAD_CAT_ID": 19420, "ELEMENT_SET_NO": 999, "REV_AT_EPOCH": 82848, "BSTAR": 0.00013477, "MEAN_MOTION_DOT": 8.7e-07, "MEAN_MOTION_DDOT": 0}, "tle": {"line1": "1 19420U 88074B   25361.46521911  .00000087  00000+0  13477-3 0  9998", "line2": "2 19420  90.0353  20.6439 0093791 197.4688 289.6459 13.42586975828487"}}, "geometry": {"type": "Point", "coordinates": [-159.3156666929271, 48.300363225341904]}}]}